$$SOE
2459580.500000000, A.D. 2022-Jan-01 00:00:00.0000, -2.866054324451782E+08, -3.413722908120538E+08, 1.709557921045658E+07,
2459587.500000000, A.D. 2022-Jan-08 00:00:00.0000, -2.803473469466873E+08, -3.455283388706744E+08, 1.790170104423398E+07,
2459594.500000000, A.D. 2022-Jan-15 00:00:00.0000, -2.739351770387988E+08, -3.494944214234801E+08, 1.869798120730063E+07,
2459601.500000000, A.D. 2022-Jan-22 00:00:00.0000, -2.673715642862722E+08, -3.532672363976029E+08, 1.948392141580349E+07,
2459608.500000000, A.D. 2022-Jan-29 00:00:00.0000, -2.606591498186868E+08, -3.568433957157868E+08, 2.025901499702016E+07,
2459615.500000000, A.D. 2022-Feb-05 00:00:00.0000, -2.538005825632863E+08, -3.602194200513343E+08, 2.102274606627433E+07,
2459622.500000000, A.D. 2022-Feb-12 00:00:00.0000, -2.467985255603656E+08, -3.633917344610572E+08, 2.177458838338608E+07,
2459629.500000000, A.D. 2022-Feb-19 00:00:00.0000, -2.396556617266847E+08, -3.663566625048153E+08, 2.251400419908218E+07,
2459636.500000000, A.D. 2022-Feb-26 00:00:00.0000, -2.323747004218404E+08, -3.691104195504279E+08, 2.324044314743412E+07,
2459643.500000000, A.D. 2022-Mar-05 00:00:00.0000, -2.249583847053577E+08, -3.716491058558563E+08, 2.395334111364146E+07,
2459650.500000000, A.D. 2022-Mar-12 00:00:00.0000, -2.174094991143020E+08, -3.739686994692344E+08, 2.465211904533012E+07,
2459657.500000000, A.D. 2022-Mar-19 00:00:00.0000, -2.097308779480462E+08, -3.760650488933762E+08, 2.533618169671561E+07,
2459664.500000000, A.D. 2022-Mar-26 00:00:00.0000, -2.019254141026405E+08, -3.779338654939877E+08, 2.600491629638973E+07,
2459671.500000000, A.D. 2022-Apr-02 00:00:00.0000, -1.939960684589617E+08, -3.795707156780534E+08, 2.665769112072469E+07,
2459678.500000000, A.D. 2022-Apr-09 00:00:00.0000, -1.859458796312680E+08, -3.809710128055604E+08, 2.729385394029348E+07,
2459685.500000000, A.D. 2022-Apr-16 00:00:00.0000, -1.777779738048338E+08, -3.821300081473839E+08, 2.791273035101891E+07,
2459692.500000000, A.D. 2022-Apr-23 00:00:00.0000, -1.694955760263645E+08, -3.830427797726272E+08, 2.851362218523297E+07,
2459699.500000000, A.D. 2022-Apr-30 00:00:00.0000, -1.611020249241033E+08, -3.837042215801769E+08, 2.909580598023988E+07,
2459706.500000000, A.D. 2022-May-07 00:00:00.0000, -1.526007879176467E+08, -3.841090344202920E+08, 2.965853105139288E+07,
2459713.500000000, A.D. 2022-May-14 00:00:00.0000, -1.439954756698950E+08, -3.842517162406253E+08, 3.020101727942874E+07,
2459720.500000000, A.D. 2022-May-21 00:00:00.0000, -1.352898579730903E+08, -3.841265504676236E+08, 3.072245284823945E+07,
2459727.500000000, A.D. 2022-May-28 00:00:00.0000, -1.264878817282114E+08, -3.837275935494815E+08, 3.122199188494377E+07,
2459734.500000000, A.D. 2022-Jun-04 00:00:00.0000, -1.175936909431112E+08, -3.830486619406281E+08, 3.169875193578219E+07,
2459741.500000000, A.D. 2022-Jun-11 00:00:00.0000, -1.086116488324663E+08, -3.820833184948577E+08, 3.215181124740788E+07,
2459748.500000000, A.D. 2022-Jun-18 00:00:00.0000, -9.954636223838677E+07, -3.808248582283479E+08, 3.258020583217013E+07,
2459755.500000000, A.D. 2022-Jun-25 00:00:00.0000, -9.040270863562940E+07, -3.792662934682282E+08, 3.298292629176162E+07,
2459762.500000000, A.D. 2022-Jul-02 00:00:00.0000, -8.118586592315684E+07, -3.774003384449139E+08, 3.335891436007778E+07,
2459769.500000000, A.D. 2022-Jul-09 00:00:00.0000, -7.190134499680632E+07, -3.752193931562068E+08, 3.370705912101583E+07,
2459776.500000000, A.D. 2022-Jul-16 00:00:00.0000, -6.255502560035595E+07, -3.727155254410722E+08, 3.402619297015855E+07,
2459783.500000000, A.D. 2022-Jul-23 00:00:00.0000, -5.315319816094105E+07, -3.698804512255049E+08, 3.431508750170934E+07,
2459790.500000000, A.D. 2022-Jul-30 00:00:00.0000, -4.370261210657400E+07, -3.667055163609220E+08, 3.457244901007576E+07,
2459797.500000000, A.D. 2022-Aug-06 00:00:00.0000, -3.421052773549841E+07, -3.631816795115291E+08, 3.479691329872796E+07,
2459804.500000000, A.D. 2022-Aug-13 00:00:00.0000, -2.468477323096430E+07, -3.592994934891873E+08, 3.498704006571978E+07,
2459811.500000000, A.D. 2022-Aug-20 00:00:00.0000, -1.513380927831730E+07, -3.550490857527822E+08, 3.514130693647312E+07,
2459818.500000000, A.D. 2022-Aug-27 00:00:00.0000, -5.566802238938871E+06, -3.504201390920946E+08, 3.525810304569399E+07,
2459825.500000000, A.D. 2022-Sep-03 00:00:00.0000, 4.006293187546837E+06, -3.454018730043161E+08, 3.533572210494113E+07,
2459832.500000000, A.D. 2022-Sep-10 00:00:00.0000, 1.357464054329897E+07, -3.399830262717268E+08, 3.537235492004685E+07,
2459839.500000000, A.D. 2022-Sep-17 00:00:00.0000, 2.312641589804702E+07, -3.341518414507996E+08, 3.536608133085854E+07,
2459846.500000000, A.D. 2022-Sep-24 00:00:00.0000, 3.264868809831514E+07, -3.278960522622818E+08, 3.531486154793820E+07,
2459853.500000000, A.D. 2022-Oct-01 00:00:00.0000, 4.212728314602518E+07, -3.212028751403654E+08, 3.521652686083513E+07,
2459860.500000000, A.D. 2022-Oct-08 00:00:00.0000, 5.154663073409384E+07, -3.140590060365506E+08, 3.506876974191876E+07,
2459867.500000000, A.D. 2022-Oct-15 00:00:00.0000, 6.088958928908518E+07, -3.064506233891334E+08, 3.486913357689725E+07,
2459874.500000000, A.D. 2022-Oct-22 00:00:00.0000, 7.013724425400396E+07, -2.983634016878400E+08, 3.461500217351635E+07,
2459881.500000000, A.D. 2022-Oct-29 00:00:00.0000, 7.926867863827726E+07, -2.897825417970556E+08, 3.430358875585274E+07,
2459888.500000000, A.D. 2022-Nov-05 00:00:00.0000, 8.826071407505907E+07, -2.806928199369972E+08, 3.393192470948794E+07,
2459895.500000000, A.D. 2022-Nov-12 00:00:00.0000, 9.708761620030215E+07, -2.710786600734055E+08, 3.349684871349548E+07,
2459902.500000000, A.D. 2022-Nov-19 00:00:00.0000, 1.057207591358939E+08, -2.609242384554602E+08, 3.299499676201111E+07,
2459909.500000000, A.D. 2022-Nov-26 00:00:00.0000, 1.141282447341255E+08, -2.502136307522913E+08, 3.242279375779565E+07,
2459916.500000000, A.D. 2022-Dec-03 00:00:00.0000, 1.222744723425147E+08, -2.389310147456708E+08, 3.177644770783324E+07,
2459923.500000000, A.D. 2022-Dec-10 00:00:00.0000, 1.301196554354669E+08, -2.270609451659658E+08, 3.105194798157111E+07,
2459930.500000000, A.D. 2022-Dec-17 00:00:00.0000, 1.376192829689398E+08, -2.145887218751449E+08, 3.024506965035260E+07,
2459937.500000000, A.D. 2022-Dec-24 00:00:00.0000, 1.447235262200392E+08, -2.015008782610677E+08, 2.935138665933023E+07,
2459944.500000000, A.D. 2022-Dec-31 00:00:00.0000, 1.513765969111026E+08, -1.877858232724406E+08, 2.836629755027352E+07,
2459951.500000000, A.D. 2023-Jan-07 00:00:00.0000, 1.575160699122535E+08, -1.734346774371687E+08, 2.728506879879475E+07,
2459958.500000000, A.D. 2023-Jan-14 00:00:00.0000, 1.630721937525166E+08, -1.584423520945798E+08, 2.610290256683432E+07,
2459965.500000000, A.D. 2023-Jan-21 00:00:00.0000, 1.679672315557158E+08, -1.428089329104024E+08, 2.481503719492460E+07,
2459972.500000000, A.D. 2023-Jan-28 00:00:00.0000, 1.721149055257740E+08, -1.265414317724090E+08, 2.341689084296446E+07,
2459979.500000000, A.D. 2023-Feb-04 00:00:00.0000, 1.754200508442698E+08, -1.096559682569826E+08, 2.190426159614839E+07,
2459986.500000000, A.D. 2023-Feb-11 00:00:00.0000, 1.777786321452147E+08, -9.218043383222035E+07, 2.027359908663766E+07,
2459993.500000000, A.D. 2023-Feb-18 00:00:00.0000, 1.790783386155828E+08, -7.415766079362375E+07, 1.852236298345280E+07,
2460000.500000000, A.D. 2023-Feb-25 00:00:00.0000, 1.792000430155726E+08, -5.564905234242307E+07, 1.664948135567633E+07,
2460007.500000000, A.D. 2023-Mar-04 00:00:00.0000, 1.780204733601223E+08, -3.673851682247303E+07, 1.465591434463571E+07,
2460014.500000000, A.D. 2023-Mar-11 00:00:00.0000, 1.754164772417346E+08, -1.753637422449891E+07, 1.254531273815283E+07,
2460021.500000000, A.D. 2023-Mar-18 00:00:00.0000, 1.712712124877818E+08, 1.817335072296283E+06, 1.032473399861069E+07,
2460028.500000000, A.D. 2023-Mar-25 00:00:00.0000, 1.654824124110673E+08, 2.115098291433315E+07, 8.005339098954234E+06,
2460035.500000000, A.D. 2023-Apr-01 00:00:00.0000, 1.579724891284255E+08, 4.026200131325293E+07, 5.602946519840365E+06,
2460042.500000000, A.D. 2023-Apr-08 00:00:00.0000, 1.486996379408148E+08, 5.892116539655083E+07, 3.138278603466175E+06,
2460049.500000000, A.D. 2023-Apr-15 00:00:00.0000, 1.376683846136482E+08, 7.688131112228617E+07, 6.367236086291187E+05,
2460056.500000000, A.D. 2023-Apr-22 00:00:00.0000, 1.249374322994847E+08, 9.389048527423921E+07, -1.872518646565843E+06,
2460063.500000000, A.D. 2023-Apr-29 00:00:00.0000, 1.106225719177851E+08, 1.097083286835154E+08, -4.357922986414135E+06,
2460070.500000000, A.D. 2023-May-06 00:00:00.0000, 9.489311119121735E+07, 1.241232664883923E+08, -6.787604625852168E+06,
2460077.500000000, A.D. 2023-May-13 00:00:00.0000, 7.796172493672283E+07, 1.369673998739008E+08, -9.131454938380413E+06,
2460084.500000000, A.D. 2023-May-20 00:00:00.0000, 6.006933667766995E+07, 1.481263129281629E+08, -1.136306548655630E+07,
2460091.500000000, A.D. 2023-May-27 00:00:00.0000, 4.146787751184832E+07, 1.575422933178285E+08, -1.346111318952027E+07,
2460098.500000000, A.D. 2023-Jun-03 00:00:00.0000, 2.240401436881435E+07, 1.652111682581846E+08, -1.541003735860925E+07,
2460105.500000000, A.D. 2023-Jun-10 00:00:00.0000, 3.106208370961818E+06, 1.711743549020007E+08, -1.720002621139922E+07,
2460112.500000000, A.D. 2023-Jun-17 00:00:00.0000, -1.622377644502722E+07, 1.755083589879534E+08, -1.882647109522668E+07,
2460119.500000000, A.D. 2023-Jun-24 00:00:00.0000, -3.541497446505202E+07, 1.783138201286703E+08, -2.028910535186078E+07,
2460126.500000000, A.D. 2023-Jul-01 00:00:00.0000, -5.432775644924882E+07, 1.797056018851427E+08, -2.159103063501868E+07,
2460133.500000000, A.D. 2023-Jul-08 00:00:00.0000, -7.285192188329953E+07, 1.798047159686942E+08, -2.273777906904215E+07,
2460140.500000000, A.D. 2023-Jul-15 00:00:00.0000, -9.090340316449739E+07, 1.787322865021092E+08, -2.373649738850652E+07,
2460147.500000000, A.D. 2023-Jul-22 00:00:00.0000, -1.084204009318673E+08, 1.766053949990635E+08, -2.459528784182032E+07,
$$EOE